GLOBALSTAR M084         
1 38040U 11080A   25201.55589000 -.00000088  00000+0  85382-4 0  9993
2 38040  52.0024 306.8900 0000978 112.9953 260.8632 12.62267249627160
GLOBALSTAR M080         
1 38041U 11080B   25201.60652329 -.00000097  00000+0  35414-4 0  9996
2 38041  52.0077 308.3399 0000560 159.3642 213.9538 12.62267565627014
GLOBALSTAR M082         
1 38042U 11080C   25201.46323214 -.00000085  00000+0  10211-3 0  9993
2 38042  52.0067 264.2405 0000367 195.2363 177.5823 12.62267299627708
GLOBALSTAR M092         
1 38043U 11080D   25201.44107815 -.00000084  00000+0  10902-3 0  9995
2 38043  52.0105 354.6842 0000836  99.7505 292.0335 12.62265032626150
GLOBALSTAR M090         
1 38044U 11080E   25201.59965003 -.00000074  00000+0  16870-3 0  9992
2 38044  52.0110 257.6717 0000211 127.4907  26.5873 12.62261083627837
GLOBALSTAR M086         
1 38045U 11080F   25201.43618039 -.00000045  00000+0  32773-3 0  9998
2 38045  51.9886 258.6378 0001140  58.7217 313.3037 12.62273472627768
GLOBALSTAR M097         
1 39072U 13005A   25201.30186927 -.00000095  00000+0  46977-4 0  9997
2 39072  52.0024 173.6252 0000353  19.2434 340.8446 12.62265674574990
GLOBALSTAR M093         
1 39073U 13005B   25201.59224779 -.00000091  00000+0  72344-4 0  9990
2 39073  51.9792 165.9910 0000409   6.9220 353.1652 12.62266212574988
